{
  "norad_id": 60093,
  "name": "STARLINK-31239",
  "history": [
    {
      "epoch": "2026-03-28T21:34:33.387456Z",
      "apogee_km": 476.04325866626095,
      "perigee_km": 474.4945260027107,
      "latitude_deg": -3.2178631684207974e-08,
      "longitude_deg": 158.2246572408998,
      "height_km": 476.026567066303,
      "semi_major_axis_km": 6853.4058923344855,
      "eccentricity": 0.00011299,
      "inclination_deg": 53.16,
      "raan_deg": 308.1766,
      "arg_perigee_deg": 79.538,
      "mean_anomaly_deg": 280.5748,
      "mean_motion_rev_day": 15.30181974
    },
    {
      "epoch": "2026-03-29T00:42:39.555936Z",
      "apogee_km": 476.0489846831524,
      "perigee_km": 474.4658505726802,
      "latitude_deg": 2.1821408183832105e-05,
      "longitude_deg": 110.46311970134202,
      "height_km": 476.0087397347595,
      "semi_major_axis_km": 6853.3944176279165,
      "eccentricity": 0.0001155,
      "inclination_deg": 53.16,
      "raan_deg": 307.5695,
      "arg_perigee_deg": 79.3027,
      "mean_anomaly_deg": 280.8104,
      "mean_motion_rev_day": 15.30185817
    }
  ]
}